[{"OBJECT_NAME":"STARLINK-5014","OBJECT_ID":"2022-119AS","EPOCH":"2026-03-09T22:12:29.199744","MEAN_MOTION":15.08849401,"ECCENTRICITY":0.00011151,"INCLINATION":53.2166,"RA_OF_ASC_NODE":307.8478,"ARG_OF_PERICENTER":79.9754,"MEAN_ANOMALY":280.1364,"EPHEMERIS_TYPE":0,"CLASSIFICATION_TYPE":"U","NORAD_CAT_ID":53926,"ELEMENT_SET_NO":999,"REV_AT_EPOCH":19194,"BSTAR":0.00022817723,"MEAN_MOTION_DOT":3.346e-5,"MEAN_MOTION_DDOT":0},{"OBJECT_NAME":"THE ARAB SATELLITE 813","OBJECT_ID":"2025-292B","EPOCH":"2026-03-09T21:37:26.354208","MEAN_MOTION":15.05594469,"ECCENTRICITY":0.00142186,"INCLINATION":97.6379,"RA_OF_ASC_NODE":145.6178,"ARG_OF_PERICENTER":341.4344,"MEAN_ANOMALY":18.6363,"EPHEMERIS_TYPE":0,"CLASSIFICATION_TYPE":"U","NORAD_CAT_ID":66994,"ELEMENT_SET_NO":999,"REV_AT_EPOCH":1350,"BSTAR":0.00043840303,"MEAN_MOTION_DOT":6.274e-5,"MEAN_MOTION_DDOT":0}]
